NORAD_CAT_ID,OBJECT_NAME,OBJECT_TYPE,EPOCH,MEAN_MOTION,ECCENTRICITY,INCLINATION,RA_OF_ASC_NODE,ARG_OF_PERICENTER,MEAN_ANOMALY,BSTAR,MEAN_MOTION_DOT,MEAN_MOTION_DDOT,TLE_LINE0,TLE_LINE1,TLE_LINE2,SEMIMAJOR_AXIS,PERIOD,APOGEE,PERIGEE,DECAYED
55782.0,STARLINK-5826,PAYLOAD,2023-05-14 13:25:51,15.69933802,0.0003461,69.9978,313.3153,270.6357,89.4442,7.5736e-06,6.98e-06,0.0,0 STARLINK-5826,1 55782U 23028AT  23134.55961831  .00000698  00000-0  75736-5 0  9999,2 55782  69.9978 313.3153 0003461 270.6357  89.4442 15.69933802 11942,6737.223,91.724,361.42,356.757,0.0
55782.0,STARLINK-5826,PAYLOAD,2023-05-14 21:04:36,15.69931529,0.0003779,69.997,312.42,262.0139,98.0628,-4.992e-06,-8.14e-06,0.0,0 STARLINK-5826,1 55782U 23028AT  23134.87820322 -.00000814  00000-0 -49920-5 0  9991,2 55782  69.9970 312.4200 0003779 262.0139  98.0628 15.69931529 11993,6737.23,91.724,361.641,356.549,0.0
55782.0,STARLINK-5826,PAYLOAD,2023-05-15 10:50:23,15.69913562,0.0003722,69.9966,310.8067,261.8034,98.2739,1.0367e-05,1.033e-05,0.0,0 STARLINK-5826,1 55782U 23028AT  23135.45166408  .00001033  00000-0  10367-4 0  9998,2 55782  69.9966 310.8067 0003722 261.8034  98.2739 15.69913562 12083,6737.281,91.725,361.654,356.639,0.0
55782.0,STARLINK-5826,PAYLOAD,2023-05-15 12:22:08,15.69915704,0.0003695,69.9963,310.6279,259.4734,100.6046,1.2341e-05,1.271e-05,0.0,0 STARLINK-5826,1 55782U 23028AT  23135.51537941  .00001271  00000-0  12341-4 0  9997,2 55782  69.9963 310.6279 0003695 259.4734 100.6046 15.69915704 12092,6737.275,91.725,361.63,356.651,0.0
55782.0,STARLINK-5826,PAYLOAD,2023-05-15 18:29:08,15.69921053,0.0003698,69.9976,309.9117,264.5061,95.5713,2.4765e-05,2.766e-05,0.0,0 STARLINK-5826,1 55782U 23028AT  23135.77024255  .00002766  00000-0  24765-4 0  9997,2 55782  69.9976 309.9117 0003698 264.5061  95.5713 15.69921053 12133,6737.26,91.724,361.616,356.633,0.0
55782.0,STARLINK-5826,PAYLOAD,2023-05-16 12:50:10,15.69926748,0.0003782,69.9984,307.7634,261.8269,98.2498,9.6779e-06,9.51e-06,0.0,0 STARLINK-5826,1 55782U 23028AT  23136.53484053  .00000951  00000-0  96779-5 0  9997,2 55782  69.9984 307.7634 0003782 261.8269  98.2498 15.69926748 12255,6737.244,91.724,361.657,356.561,0.0
55782.0,STARLINK-5826,PAYLOAD,2023-05-16 17:25:25,15.69933029,0.0004022,69.9976,307.2252,263.7421,96.3317,1.4077e-05,1.481e-05,0.0,0 STARLINK-5826,1 55782U 23028AT  23136.72598559  .00001481  00000-0  14077-4 0  9994,2 55782  69.9976 307.2252 0004022 263.7421  96.3317 15.69933029 12288,6737.226,91.724,361.8,356.381,0.0
55782.0,STARLINK-5826,PAYLOAD,2023-05-17 19:25:12,15.6992964,0.0003137,69.9996,304.1797,257.7731,102.3113,1.4469e-05,1.528e-05,0.0,0 STARLINK-5826,1 55782U 23028AT  23137.80917313  .00001528  00000-0  14469-4 0  9994,2 55782  69.9996 304.1797 0003137 257.7731 102.3113 15.69929640 12458,6737.235,91.724,361.214,356.987,0.0
55782.0,STARLINK-5826,PAYLOAD,2023-05-17 20:56:57,15.69931008,0.0003292,69.9974,303.9974,260.3224,99.76,1.0904e-05,1.099e-05,0.0,0 STARLINK-5826,1 55782U 23028AT  23137.87288990  .00001099  00000-0  10904-4 0  9996,2 55782  69.9974 303.9974 0003292 260.3224  99.7600 15.69931008 12469,6737.231,91.724,361.314,356.878,0.0
55782.0,STARLINK-5826,PAYLOAD,2023-05-18 12:14:29,15.69927014,0.0003818,69.9986,302.208,266.1111,93.9648,1.1265e-07,-2e-06,0.0,0 STARLINK-5826,1 55782U 23028AT  23138.51006218 -.00000200  00000-0  11265-6 0  9996,2 55782  69.9986 302.2080 0003818 266.1111  93.9648 15.69927014 12566,6737.243,91.724,361.68,356.536,0.0
55782.0,STARLINK-5826,PAYLOAD,2023-05-18 21:24:59,15.69934354,0.0003696,69.9989,301.1331,266.1623,93.915,8.8134e-06,8.47e-06,0.0,0 STARLINK-5826,1 55782U 23028AT  23138.89235549  .00000847  00000-0  88134-5 0  9992,2 55782  69.9989 301.1331 0003696 266.1623  93.9150 15.69934354 12628,6737.222,91.724,361.577,356.597,0.0
55782.0,STARLINK-5826,PAYLOAD,2023-05-18 22:56:44,15.69937442,0.0003413,69.9981,300.9538,265.8234,94.2571,7.8455e-06,7.31e-06,0.0,0 STARLINK-5826,1 55782U 23028AT  23138.95607006  .00000731  00000-0  78455-5 0  9997,2 55782  69.9981 300.9538 0003413 265.8234  94.2571 15.69937442 12630,6737.213,91.723,361.377,356.779,0.0
55782.0,STARLINK-5826,PAYLOAD,2023-05-19 17:17:46,15.69927062,0.0003681,69.999,298.8048,268.7307,91.3467,3.7095e-06,2.33e-06,0.0,0 STARLINK-5826,1 55782U 23028AT  23139.72067838  .00000233  00000-0  37095-5 0  9998,2 55782  69.9990 298.8048 0003681 268.7307  91.3467 15.69927062 12753,6737.243,91.724,361.588,356.628,0.0
55782.0,STARLINK-5826,PAYLOAD,2023-05-19 20:21:16,15.69928448,0.0003703,69.9989,298.4465,269.169,90.9082,4.9984e-06,3.88e-06,0.0,0 STARLINK-5826,1 55782U 23028AT  23139.84811039  .00000388  00000-0  49984-5 0  9992,2 55782  69.9989 298.4465 0003703 269.1690  90.9082 15.69928448 12774,6737.239,91.724,361.599,356.609,0.0
55782.0,STARLINK-5826,PAYLOAD,2023-05-20 10:07:01,15.70000683,0.0003233,69.9988,296.8343,279.4258,80.6572,-0.00012857,-0.00015692,0.0,0 STARLINK-5826,1 55782U 23028AT  23140.42154487 -.00015692  00000-0 -12857-3 0  9998,2 55782  69.9988 296.8343 0003233 279.4258  80.6572 15.70000683 12866,6737.032,91.72,361.075,356.719,0.0
55782.0,STARLINK-5826,PAYLOAD,2023-05-20 17:45:46,15.69955037,0.0003744,69.9988,295.9389,273.54,86.5368,3.0609e-05,3.474e-05,0.0,0 STARLINK-5826,1 55782U 23028AT  23140.74012167  .00003474  00000-0  30609-4 0  9990,2 55782  69.9988 295.9389 0003744 273.5400  86.5368 15.69955037 12911,6737.163,91.722,361.55,356.505,0.0
55782.0,STARLINK-5826,PAYLOAD,2023-05-20 19:17:33,15.69932164,0.0004205,69.998,295.7587,274.4846,85.587,3.9696e-06,2.64e-06,0.0,0 STARLINK-5826,1 55782U 23028AT  23140.80385510  .00000264  00000-0  39696-5 0  9992,2 55782  69.9980 295.7587 0004205 274.4846  85.5870 15.69932164 12922,6737.228,91.724,361.926,356.26,0.0
55782.0,STARLINK-5826,PAYLOAD,2023-05-21 09:03:21,15.69908115,0.0003639,69.999,294.1477,277.8802,82.1981,-1.1052e-05,-1.541e-05,0.0,0 STARLINK-5826,1 55782U 23028AT  23141.37732824 -.00001541  00000-0 -11052-4 0  9995,2 55782  69.9990 294.1477 0003639 277.8802  82.1981 15.69908115 13019,6737.297,91.725,361.614,356.71,0.0
55782.0,STARLINK-5826,PAYLOAD,2023-05-21 16:42:05,15.69922979,0.0003784,69.999,293.2518,272.2991,87.7771,8.7076e-06,8.34e-06,0.0,0 STARLINK-5826,1 55782U 23028AT  23141.69590067  .00000834  00000-0  87076-5 0  9993,2 55782  69.9990 293.2518 0003784 272.2991  87.7771 15.69922979 13061,6737.254,91.724,361.669,356.57,0.0
55782.0,STARLINK-5826,PAYLOAD,2023-05-21 18:13:50,15.69924118,0.0003662,69.9991,293.0727,272.0771,88.0005,9.8961e-06,9.77e-06,0.0,0 STARLINK-5826,1 55782U 23028AT  23141.75961674  .00000977  00000-0  98961-5 0  9999,2 55782  69.9991 293.0727 0003662 272.0771  88.0005 15.69924118 13073,6737.251,91.724,361.583,356.649,0.0
55782.0,STARLINK-5826,PAYLOAD,2023-05-22 03:24:20,15.69937946,0.0003495,70.0006,291.9983,271.6644,88.4151,2.7712e-05,3.123e-05,0.0,0 STARLINK-5826,1 55782U 23028AT  23142.14190567  .00003123  00000-0  27712-4 0  9999,2 55782  70.0006 291.9983 0003495 271.6644  88.4151 15.69937946 13138,6737.212,91.723,361.431,356.722,0.0
55782.0,STARLINK-5826,PAYLOAD,2023-05-22 11:03:07,15.6992945,0.0003397,70.0006,291.1045,272.9702,87.1105,3.5822e-06,2.18e-06,0.0,0 STARLINK-5826,1 55782U 23028AT  23142.46049822  .00000218  00000-0  35822-5 0  9995,2 55782  70.0006 291.1045 0003397 272.9702  87.1105 15.69929450 13180,6737.236,91.724,361.389,356.812,0.0
55782.0,STARLINK-5826,PAYLOAD,2023-05-22 12:34:52,15.69924962,0.0003462,70.0014,290.9257,273.5334,86.5466,4.5856e-06,3.39e-06,0.0,0 STARLINK-5826,1 55782U 23028AT  23142.52421587  .00000339  00000-0  45856-5 0  9996,2 55782  70.0014 290.9257 0003462 273.5334  86.5466 15.69924962 13199,6737.249,91.724,361.446,356.781,0.0
55782.0,STARLINK-5826,PAYLOAD,2023-05-22 20:13:38,15.69923757,0.0003491,69.9993,290.029,271.9986,88.0809,-5.8018e-06,-9.1e-06,0.0,0 STARLINK-5826,1 55782U 23028AT  23142.84280272 -.00000910  00000-0 -58018-5 0  9996,2 55782  69.9993 290.0290 0003491 271.9986  88.0809 15.69923757 13242,6737.252,91.724,361.469,356.765,0.0
55782.0,STARLINK-5826,PAYLOAD,2023-05-23 16:06:24,15.69923886,0.0003782,69.998,287.6977,266.4782,93.5981,2.2058e-05,2.44e-05,0.0,0 STARLINK-5826,1 55782U 23028AT  23143.67111581  .00002440  00000-0  22058-4 0  9996,2 55782  69.9980 287.6977 0003782 266.4782  93.5981 15.69923886 13377,6737.252,91.724,361.665,356.569,0.0
55782.0,STARLINK-5826,PAYLOAD,2023-05-23 19:09:54,15.69925071,0.0003822,69.9977,287.3396,272.881,87.1948,2.4063e-05,2.682e-05,0.0,0 STARLINK-5826,1 55782U 23028AT  23143.79854838  .00002682  00000-0  24063-4 0  9994,2 55782  69.9977 287.3396 0003822 272.8810  87.1948 15.69925071 13395,6737.248,91.724,361.688,356.538,0.0
55782.0,STARLINK-5826,PAYLOAD,2023-05-24 02:48:41,15.69922908,0.0003229,69.9993,286.446,267.1003,92.9823,-1.1818e-05,-1.633e-05,0.0,0 STARLINK-5826,1 55782U 23028AT  23144.11714144 -.00001633  00000-0 -11818-4 0  9997,2 55782  69.9993 286.4460 0003229 267.1003  92.9823 15.69922908 13445,6737.255,91.724,361.295,356.944,0.0
55782.0,STARLINK-5826,PAYLOAD,2023-05-25 18:34:13,15.69928216,0.0003429,69.9985,281.7873,268.6192,91.4611,1.5167e-06,-3e-07,0.0,0 STARLINK-5826,1 55782U 23028AT  23145.77376923 -.00000030  00000-0  15167-5 0  9990,2 55782  69.9985 281.7873 0003429 268.6192  91.4611 15.69928216 13705,6737.239,91.724,361.415,356.794,0.0
55782.0,STARLINK-5826,PAYLOAD,2023-05-26 11:23:30,15.6992263,0.0003341,69.999,279.8157,267.1311,92.9502,5.7835e-06,4.83e-06,0.0,0 STARLINK-5826,1 55782U 23028AT  23146.47465622  .00000483  00000-0  57835-5 0  9992,2 55782  69.9990 279.8157 0003341 267.1311  92.9502 15.69922630 13815,6737.255,91.724,361.371,356.869,0.0
55782.0,STARLINK-5826,PAYLOAD,2023-05-26 19:02:16,15.69911134,0.0003116,69.9998,278.9209,280.8074,79.2771,-9.5327e-06,-1.358e-05,0.0,0 STARLINK-5826,1 55782U 23028AT  23146.79324985 -.00001358  00000-0 -95327-5 0  9995,2 55782  69.9998 278.9209 0003116 280.8074  79.2771 15.69911134 13867,6737.288,91.725,361.253,357.054,0.0
